MALLIGYONG-1            
1 58400U 23179A   24123.49448353  .00006529  00000+0  28641-3 0  9996
2 58400  97.4097  11.0330 0011005  69.0366 291.2047 15.22251740 24774
